{
  "type": "FeatureCollection",
  "features": [
    {
      "type": "Feature",
      "geometry": {
        "type": "Point",
        "coordinates": [
          -98.57503248497028,
          33.91876727786396
        ]
      },
      "properties": {
        "id": 1
      }
    },
    {
      "type": "Feature",
      "geometry": {
        "type": "Point",
        "coordinates": [
          -98.4919161273474,
          33.90395122295017
        ]
      },
      "properties": {
        "id": 2
      }
    },
    {
      "type": "Feature",
      "geometry": {
        "type": "Point",
        "coordinates": [
          -98.57571939701673,
          33.88742258505221
        ]
      },
      "properties": {
        "id": 3
      }
    },
    {
      "type": "Feature",
      "geometry": {
        "type": "Point",
        "coordinates": [
          -98.61212573547967,
          33.91306910001295
        ]
      },
      "properties": {
        "id": 4
      }
    }
  ]
}